OPTICUBE 04             
1 41851U 16067D   18240.19457563  .00000666  00000-0  63644-4 0  9999
2 41851  97.9231 329.2356 0007315 287.8872  72.1551 14.96695559 97860
AEROCUBE 8D             
1 41852U 16067E   18240.23947036  .00000108  00000-0  14845-4 0  9994
2 41852  97.9241 329.1182 0008477 287.2936  72.7357 14.96533198 97852
AEROCUBE 8C             
1 41853U 16067F   18240.18850369  .00000617  00000-0  59649-4 0  9997
2 41853  97.9242 329.0245 0008578 288.4005  71.6283 14.96497560 97842
PROMETHEUS 2-1          
1 41854U 16067G   18240.18943937  .00000836  00000-0  78674-4 0  9994
2 41854  97.9248 329.0527 0008845 287.6495  72.3760 14.96622456 97845
PROMETHEUS 2-3          
1 41855U 16067H   18240.72702952  .00001091  00000-0  10103-3 0  9991
2 41855  97.9252 329.6034 0008935 286.3006  73.7232 14.96623470 97929
ITF-2                   
1 41932U 98067KU  18239.70711812  .00061604  00000-0  30398-3 0  9992
2 41932  51.6311 330.9678 0002184  67.8157 292.3077 15.81496956 92064
WASEDA-SAT3             
1 41933U 98067KV  18240.45690727  .00159596  21096-4  40518-3 0  9993
2 41933  51.6312 314.7257 0005079   8.4415 351.6677 15.95121408 92341
AOBA-VELOX 3            
1 41935U 98067KX  18240.48856195  .00095122  00000-0  32614-3 0  9991
2 41935  51.6334 319.5963 0002792  25.8741 334.2404 15.88900164 92383
INS-1B                  
1 41954U 17008G   18240.71957902  .00002345  00000-0  10204-3 0  9998
2 41954  97.4400 304.0596 0011163  98.2651 261.9852 15.23187861 85041
BGUSAT                  
1 41999U 17008BD  18239.82748583  .00003522  00000-0  14448-3 0  9992
2 41999  97.4451 304.4548 0010112 115.3102 244.9184 15.24866382 84346
DIDO-2                  
1 42000U 17008BE  18239.79940083  .00001504  00000-0  66267-4 0  9996
2 42000  97.4421 303.6136 0010180 116.3881 243.8402 15.23329888 84302
PEASSS                  
1 42015U 17008BV  18240.72393479  .00001864  00000-0  79493-4 0  9992
2 42015  97.4418 305.0754 0008054 118.3591 241.8459 15.24168888 84967
AL-FARABI 1             
1 42016U 17008BW  18240.17090522  .00002272  00000-0  94985-4 0  9992
2 42016  97.4426 304.7792 0007954 120.0524 240.1504 15.24619636 85011
NAYIF-1 (EO-88)         
1 42017U 17008BX  18240.42652043  .00002289  00000-0  95570-4 0  9992
2 42017  97.4423 305.0406 0007943 119.4997 240.7034 15.24646171 85073
HAVELSAT                
1 42700U 98067LH  18240.56809963  .00052325  00000-0  34158-3 0  9995
2 42700  51.6342 343.5672 0001655 173.9236 186.1784 15.75322469 73418
CXBN-2                  
1 42704U 98067LM  18240.54671349  .00047455  00000-0  31679-3 0  9995
2 42704  51.6353 344.9495 0001604  38.6434 321.4680 15.74849155 73316
ICECUBE                 
1 42705U 98067LN  18240.71230377  .00208917  27567-4  60359-3 0  9997
2 42705  51.6474 329.6024 0004262  13.1696 346.9421 15.92602160 73598
PHOENIX                 
1 42706U 98067LP  18240.70858555  .00036142  00000-0  27299-3 0  9995
2 42706  51.6361 346.0395 0001109  51.5985 308.5113 15.72084591 73303
X-CUBESAT               
1 42707U 98067LQ  18240.76896736  .00071605  00000-0  44493-3 0  9993
2 42707  51.6334 341.8109 0001308  34.0978 326.0106 15.76323825 73351
QBEE50-LTU-OC           
1 42708U 98067LR  18240.82570953  .00055546  00000-0  36540-3 0  9991
2 42708  51.6351 343.0425 0001184  16.9493 343.1546 15.75121501 73308
ALTAIR PATHFINDER       
1 42711U 98067LS  18240.84651300  .00027292  00000-0  26329-3 0  9994
2 42711  51.6368 355.2541 0003486  86.2075 273.9319 15.66272237 72857
SHARC                   
1 42712U 98067LT  18240.82750935  .00051901  00000-0  47065-3 0  9991
2 42712  51.6381 356.6932 0001633  82.4046 277.7135 15.67497223 73078
ZA-AEROSAT              
1 42713U 98067LU  18240.86530476  .00037368  00000-0  29966-3 0  9993
2 42713  51.6356 348.5757 0001994  64.5181 295.6023 15.70638151 72948
LINK                    
1 42714U 98067LV  18240.65102015  .00277029  41308-4  68418-3 0  9990
2 42714  51.6196 328.7049 0006873 353.6930   6.3991 15.95444950 73299
CSUNSAT 1               
1 42715U 98067LW  18240.84903802  .00050305  00000-0  38553-3 0  9998
2 42715  51.6354 347.7380 0003080  71.1011 289.0320 15.71583977 72959
SPACECUBE               
1 42717U 98067LY  18240.73152867  .00057755  00000-0  38317-3 0  9999
2 42717  51.6315 343.8661 0000617 165.1621 194.9396 15.74909472 72368
HOOPOE                  
1 42718U 98067LZ  18240.54610080  .00068072  00000-0  37237-3 0  9999
2 42718  51.6291 340.3445 0000443  33.1576 326.9453 15.79203333 72396
NJUST-1                 
1 42722U 98067MB  18240.78234089  .00033236  00000-0  28001-3 0  9994
2 42722  51.6364 351.0552 0004034 141.4286 218.7000 15.69498977 71979
UNSW-ECO                
1 42723U 98067MC  18240.68879295  .00095441  00000-0  48358-3 0  9991
2 42723  51.6393 339.1297 0000633 114.5122 245.5946 15.80752031 72106
LILACSAT-1              
1 42725U 98067ME  18240.81751812  .00045804  00000-0  33232-3 0  9995
2 42725  51.6365 346.7678 0002530 140.7693 219.3489 15.72922692 71930
NSIGHT-1                
1 42726U 98067MF  18240.60633897  .00015579  00000-0  17590-3 0  9990
2 42726  51.6400   1.9840 0004923 140.7140 219.4212 15.62676165 71729
SNUSAT-1                
1 42727U 98067MG  18240.83049288  .00057027  00000-0  41201-3 0  9991
2 42727  51.6344 346.7839 0004457 103.6672 256.4823 15.72920398 71905
I-INSPIRE II            
1 42731U 98067ML  18240.71186199  .00086581  00000-0  42109-3 0  9991
2 42731  51.6355 337.6791 0003318  46.9609 313.1671 15.81672710 71906
POLYITAN-2-SAU          
1 42732U 98067MM  18240.72175101  .00065941  00000-0  41521-3 0  9998
2 42732  51.6336 343.0561 0003859  75.1083 285.0344 15.76047358 71836
SNUSAT-1B               
1 42733U 98067MN  18240.57282951  .00049272  00000-0  34234-3 0  9996
2 42733  51.6354 346.5953 0004058  85.4257 274.7206 15.73897885 71779
EXALTA-1                
1 42734U 98067MP  18240.71272150  .00109550  00000-0  49593-3 0  9993
2 42734  51.6275 336.8355 0001921  77.2079 282.9138 15.83118489 71869
BEEAGLESAT              
1 42736U 98067MR  18240.70888703  .00047809  00000-0  36110-3 0  9990
2 42736  51.6356 348.2617 0003608 137.2397 222.8882 15.71950238 71821
UCLSAT                  
1 42765U 17036A   18240.13733379  .00001537  00000-0  70266-4 0  9993
2 42765  97.3948 298.8084 0011848 176.1530 183.9800 15.22011514 65653
LITUANICASAT-2          
1 42768U 17036D   18240.41222107  .00002761  00000-0  12494-3 0  9997
2 42768  97.3963 298.6494 0016125 167.3358 192.8286 15.21633735 65548
AALTO-1                 
1 42775U 17036L   18240.14628803  .00001005  00000-0  48514-4 0  9991
2 42775  97.3940 298.1773 0014550 166.1544 194.0093 15.20856490 65432
URSA MAIOR              
1 42776U 17036M   18239.79995333  .00001338  00000-0  63417-4 0  9994
2 42776  97.3947 297.9038 0014374 167.4304 192.7293 15.20946307 65381
COMPASS 2               
1 42777U 17036N   18240.47043597  .00002378  00000-0  10716-3 0  9996
2 42777  97.3968 299.0732 0013328 167.3194 192.8380 15.21946175 65509
DIAMOND RED             
1 42783U 17036U   18240.15535752  .00001280  00000-0  59708-4 0  9993
2 42783  97.3948 298.6398 0012455 176.5314 183.6011 15.21595476 65450
PEGASUS                 
1 42784U 17036V   18240.84144990  .00001757  00000-0  80304-4 0  9995
2 42784  97.3949 299.4084 0012438 174.2170 185.9212 15.21818617 65564
DIAMOND GREEN           
1 42785U 17036W   18240.15412713  .00001254  00000-0  58578-4 0  9991
2 42785  97.3950 298.6540 0012327 177.0575 183.0736 15.21596959 65441
DIAMOND BLUE            
1 42786U 17036X   18240.15330122  .00001268  00000-0  59162-4 0  9990
2 42786  97.3951 298.6530 0012162 177.2475 182.8830 15.21596880 65445
NUDTSAT                 
1 42787U 17036Y   18240.13916945  .00002486  00000-0  11028-3 0  9993
2 42787  97.3956 298.9928 0011992 175.5518 184.5827 15.22459586 65317
SUCHAI                  
1 42788U 17036Z   18240.12787610  .00001751  00000-0  79382-4 0  9990
2 42788  97.3952 298.8371 0011998 176.0952 184.0381 15.22108404 65533
SKCUBE                  
1 42789U 17036AA  18239.40616416  .00001578  00000-0  71928-4 0  9990
2 42789  97.3951 298.1153 0011766 178.4748 181.6526 15.22056912 65345
VZLUSAT-1               
1 42790U 17036AB  18239.47035500  .00002582  00000-0  11442-3 0  9998
2 42790  97.3956 298.3415 0011481 177.8650 182.2637 15.22470475 65360
ROBUSTA-1B              
1 42792U 17036AD  18240.15682676  .00002000  00000-0  89990-4 0  9998
2 42792  97.3947 298.9310 0011412 176.5112 183.6206 15.22212265 65475
CICERO 6                
1 42793U 17036AE  18239.76528070  .00001537  00000-0  70286-4 0  9993
2 42793  97.3941 298.5148 0010444 178.6019 181.5248 15.22006692 65487
D-SAT                   
1 42794U 17036AF  18240.12596986  .00000288  00000-0  30393-4 0  9994
2 42794  97.5850 292.0388 0128017  43.4197 317.7019 14.90917414 64447
TOKI                    
1 42820U 98067MU  18239.74068948  .00040434  00000-0  32075-3 0  9990
2 42820  51.6351 356.0590 0002473  54.7803 305.3426 15.70859667 65097
MAZAALAI (NUMSAT-1)     
1 42822U 98067MW  18240.55235131  .00034877  00000-0  28102-3 0  9993
2 42822  51.6357 352.4883 0002468  61.5678 298.5568 15.70556855 65194
BRAC ONNESHA            
1 42823U 98067MX  18239.77931732  .00039407  00000-0  31530-3 0  9999
2 42823  51.6360 356.3479 0003979  90.4827 269.6627 15.70660635 65072
NIGERIAEDUSAT-1         
1 42824U 98067MY  18240.76881449  .00039909  00000-0  32197-3 0  9997
2 42824  51.6364 351.7268 0003913  93.5085 266.6360 15.70456379 65215
CORVUS BC2              
1 42846U 17042X   18240.51129998  .00000069  00000-0  12154-4 0  9999
2 42846  97.5894 140.7473 0008675 323.7955  36.2676 14.91848001 61153
CORVUS BC1              
1 42847U 17042Y   18240.21591370  .00000293  00000-0  34231-4 0  9993
2 42847  97.5894 140.5229 0008373 324.5697  35.4966 14.91947227 61106
